STARLINK-2555
1 18291C 21036R   21326.16931153  .00005509  00000-0  36920-3 0  3265
2 18291  53.0544 282.9829 0001586  63.2903 160.2776 15.06382660    17
